STARLINK-2735           
1 48667U 21044AF  26066.45052713 -.00001898  00000+0 -10852-3 0  9995
2 48667  53.0531 121.6714 0001622  33.5262 326.5830 15.06408228263514
STARLINK-2738           
1 48668U 21044AG  26066.37062945  .00006749  00000+0  23995-3 0  9995
2 48668  53.1582 114.7445 0001196  58.9954 301.1164 15.30179513263610
STARLINK-2707           
1 48669U 21044AH  26066.44543587  .00002814  00000+0  10710-3 0  9990
2 48669  53.1605 114.5311 0001492  83.0745 277.0426 15.30199598263610
STARLINK-2763           
1 48670U 21044AJ  26066.45179531  .00030139  00000+0  10295-2 0  9995
2 48670  53.1619 114.5957 0002193 105.6223 254.5020 15.30074137263615
STARLINK-2745           
1 48671U 21044AK  26066.53165800  .00002510  00000+0  18732-3 0  9996
2 48671  53.0539 121.6151 0001235  97.8162 262.2968 15.06400697263514
STARLINK-2705           
1 48672U 21044AL  26066.44524879  .00000750  00000+0  36590-4 0  9999
2 48672  53.1609 114.6131 0001704  65.4435 294.6743 15.31040731263617
STARLINK-2711           
1 48673U 21044AM  26066.56110433  .00003459  00000+0  25091-3 0  9992
2 48673  53.0535 121.1745 0001399  83.1887 276.9261 15.06409768263526
STARLINK-2712           
1 48674U 21044AN  26066.43579394 -.00006631  00000+0 -42650-3 0  9991
2 48674  53.0528 121.8535 0001342  82.2349 277.8792 15.06415892263506
STARLINK-2746           
1 48676U 21044AQ  26066.55005078  .00002745  00000+0  20297-3 0  9992
2 48676  53.0540 121.2239 0001472  93.0862 267.0296 15.06419768263529
STARLINK-2615           
1 48678U 21044AS  26066.50436487  .00001991  00000+0  79354-4 0  9992
2 48678  53.1629 113.8447 0001579  80.3792 279.7387 15.30197144263638
STARLINK-2648           
1 48679U 21044AT  26066.47265595  .00001814  00000+0  14073-3 0  9999
2 48679  53.0549 121.5719 0001438  87.6555 272.4598 15.06382909263517
STARLINK-2725           
1 48681U 21044AV  26066.43203357  .00002115  00000+0  83499-4 0  9990
2 48681  53.1615  85.7591 0001472  84.0479 276.0690 15.30204822264011
STARLINK-2743           
1 48682U 21044AW  26066.33935337  .00001004  00000+0  46021-4 0  9996
2 48682  53.1610  75.8656 0001353  89.3533 270.7623 15.30196849264146
STARLINK-2756           
1 48683U 21044AX  26066.46053741  .00008390  00000+0  29503-3 0  9991
2 48683  53.1610  75.4898 0001165  91.9836 268.1298 15.30203613264166
STARLINK-2741           
1 48684U 21044AY  26066.42316987  .00008547  00000+0  30046-3 0  9990
2 48684  53.1598  88.4544 0001262  89.7487 270.3659 15.30190251263987
STARLINK-2751           
1 48685U 21044AZ  26066.34251720  .00003605  00000+0  13380-3 0  9997
2 48685  53.1610  75.8405 0001369  80.4699 279.6456 15.30196669264156
