[{"OBJECT_NAME":"STARLINK-2735","OBJECT_ID":"2021-044AF","EPOCH":"2026-03-07T10:48:45.544032","MEAN_MOTION":15.06408228,"ECCENTRICITY":0.00016228,"INCLINATION":53.0531,"RA_OF_ASC_NODE":121.6714,"ARG_OF_PERICENTER":33.5262,"MEAN_ANOMALY":326.583,"EPHEMERIS_TYPE":0,"CLASSIFICATION_TYPE":"U","NORAD_CAT_ID":48667,"ELEMENT_SET_NO":999,"REV_AT_EPOCH":26351,"BSTAR":-0.0001085242,"MEAN_MOTION_DOT":-1.898e-5,"MEAN_MOTION_DDOT":0},{"OBJECT_NAME":"STARLINK-2738","OBJECT_ID":"2021-044AG","EPOCH":"2026-03-07T08:53:42.384480","MEAN_MOTION":15.30179513,"ECCENTRICITY":0.00011969,"INCLINATION":53.1582,"RA_OF_ASC_NODE":114.7445,"ARG_OF_PERICENTER":58.9954,"MEAN_ANOMALY":301.1164,"EPHEMERIS_TYPE":0,"CLASSIFICATION_TYPE":"U","NORAD_CAT_ID":48668,"ELEMENT_SET_NO":999,"REV_AT_EPOCH":26361,"BSTAR":0.00023994714,"MEAN_MOTION_DOT":6.749e-5,"MEAN_MOTION_DDOT":0},{"OBJECT_NAME":"STARLINK-2707","OBJECT_ID":"2021-044AH","EPOCH":"2026-03-07T10:41:25.659168","MEAN_MOTION":15.30199598,"ECCENTRICITY":0.0001492,"INCLINATION":53.1605,"RA_OF_ASC_NODE":114.5311,"ARG_OF_PERICENTER":83.0745,"MEAN_ANOMALY":277.0426,"EPHEMERIS_TYPE":0,"CLASSIFICATION_TYPE":"U","NORAD_CAT_ID":48669,"ELEMENT_SET_NO":999,"REV_AT_EPOCH":26361,"BSTAR":0.0001070959,"MEAN_MOTION_DOT":2.814e-5,"MEAN_MOTION_DDOT":0},{"OBJECT_NAME":"STARLINK-2763","OBJECT_ID":"2021-044AJ","EPOCH":"2026-03-07T10:50:35.114784","MEAN_MOTION":15.30074137,"ECCENTRICITY":0.0002193,"INCLINATION":53.1619,"RA_OF_ASC_NODE":114.5957,"ARG_OF_PERICENTER":105.6223,"MEAN_ANOMALY":254.502,"EPHEMERIS_TYPE":0,"CLASSIFICATION_TYPE":"U","NORAD_CAT_ID":48670,"ELEMENT_SET_NO":999,"REV_AT_EPOCH":26361,"BSTAR":0.0010295425,"MEAN_MOTION_DOT":0.00030139,"MEAN_MOTION_DDOT":0},{"OBJECT_NAME":"STARLINK-2745","OBJECT_ID":"2021-044AK","EPOCH":"2026-03-07T12:45:35.251200","MEAN_MOTION":15.06400697,"ECCENTRICITY":0.0001235,"INCLINATION":53.0539,"RA_OF_ASC_NODE":121.6151,"ARG_OF_PERICENTER":97.8162,"MEAN_ANOMALY":262.2968,"EPHEMERIS_TYPE":0,"CLASSIFICATION_TYPE":"U","NORAD_CAT_ID":48671,"ELEMENT_SET_NO":999,"REV_AT_EPOCH":26351,"BSTAR":0.0001873205,"MEAN_MOTION_DOT":2.51e-5,"MEAN_MOTION_DDOT":0},{"OBJECT_NAME":"STARLINK-2705","OBJECT_ID":"2021-044AL","EPOCH":"2026-03-07T10:41:09.495456","MEAN_MOTION":15.31040731,"ECCENTRICITY":0.00017044,"INCLINATION":53.1609,"RA_OF_ASC_NODE":114.6131,"ARG_OF_PERICENTER":65.4435,"MEAN_ANOMALY":294.6743,"EPHEMERIS_TYPE":0,"CLASSIFICATION_TYPE":"U","NORAD_CAT_ID":48672,"ELEMENT_SET_NO":999,"REV_AT_EPOCH":26361,"BSTAR":3.6590155e-5,"MEAN_MOTION_DOT":7.5e-6,"MEAN_MOTION_DDOT":0},{"OBJECT_NAME":"STARLINK-2711","OBJECT_ID":"2021-044AM","EPOCH":"2026-03-07T13:27:59.414112","MEAN_MOTION":15.06409768,"ECCENTRICITY":0.00013996,"INCLINATION":53.0535,"RA_OF_ASC_NODE":121.1745,"ARG_OF_PERICENTER":83.1887,"MEAN_ANOMALY":276.9261,"EPHEMERIS_TYPE":0,"CLASSIFICATION_TYPE":"U","NORAD_CAT_ID":48673,"ELEMENT_SET_NO":999,"REV_AT_EPOCH":26352,"BSTAR":0.00025090696,"MEAN_MOTION_DOT":3.459e-5,"MEAN_MOTION_DDOT":0},{"OBJECT_NAME":"STARLINK-2712","OBJECT_ID":"2021-044AN","EPOCH":"2026-03-07T10:27:32.596416","MEAN_MOTION":15.06415892,"ECCENTRICITY":0.00013425,"INCLINATION":53.0528,"RA_OF_ASC_NODE":121.8535,"ARG_OF_PERICENTER":82.2349,"MEAN_ANOMALY":277.8792,"EPHEMERIS_TYPE":0,"CLASSIFICATION_TYPE":"U","NORAD_CAT_ID":48674,"ELEMENT_SET_NO":999,"REV_AT_EPOCH":26350,"BSTAR":-0.00042649984,"MEAN_MOTION_DOT":-6.631e-5,"MEAN_MOTION_DDOT":0},{"OBJECT_NAME":"STARLINK-2746","OBJECT_ID":"2021-044AQ","EPOCH":"2026-03-07T13:12:04.387392","MEAN_MOTION":15.06419768,"ECCENTRICITY":0.00014722,"INCLINATION":53.054,"RA_OF_ASC_NODE":121.2239,"ARG_OF_PERICENTER":93.0862,"MEAN_ANOMALY":267.0296,"EPHEMERIS_TYPE":0,"CLASSIFICATION_TYPE":"U","NORAD_CAT_ID":48676,"ELEMENT_SET_NO":999,"REV_AT_EPOCH":26352,"BSTAR":0.00020297253,"MEAN_MOTION_DOT":2.745e-5,"MEAN_MOTION_DDOT":0},{"OBJECT_NAME":"STARLINK-2615","OBJECT_ID":"2021-044AS","EPOCH":"2026-03-07T12:06:17.124768","MEAN_MOTION":15.30197144,"ECCENTRICITY":0.00015795,"INCLINATION":53.1629,"RA_OF_ASC_NODE":113.8447,"ARG_OF_PERICENTER":80.3792,"MEAN_ANOMALY":279.7387,"EPHEMERIS_TYPE":0,"CLASSIFICATION_TYPE":"U","NORAD_CAT_ID":48678,"ELEMENT_SET_NO":999,"REV_AT_EPOCH":26363,"BSTAR":7.9353648e-5,"MEAN_MOTION_DOT":1.991e-5,"MEAN_MOTION_DDOT":0},{"OBJECT_NAME":"STARLINK-2648","OBJECT_ID":"2021-044AT","EPOCH":"2026-03-07T11:20:37.474080","MEAN_MOTION":15.06382909,"ECCENTRICITY":0.00014381,"INCLINATION":53.0549,"RA_OF_ASC_NODE":121.5719,"ARG_OF_PERICENTER":87.6555,"MEAN_ANOMALY":272.4598,"EPHEMERIS_TYPE":0,"CLASSIFICATION_TYPE":"U","NORAD_CAT_ID":48679,"ELEMENT_SET_NO":999,"REV_AT_EPOCH":26351,"BSTAR":0.00014072924,"MEAN_MOTION_DOT":1.814e-5,"MEAN_MOTION_DDOT":0},{"OBJECT_NAME":"STARLINK-2725","OBJECT_ID":"2021-044AV","EPOCH":"2026-03-07T10:22:07.700448","MEAN_MOTION":15.30204822,"ECCENTRICITY":0.0001472,"INCLINATION":53.1615,"RA_OF_ASC_NODE":85.7591,"ARG_OF_PERICENTER":84.0479,"MEAN_ANOMALY":276.069,"EPHEMERIS_TYPE":0,"CLASSIFICATION_TYPE":"U","NORAD_CAT_ID":48681,"ELEMENT_SET_NO":999,"REV_AT_EPOCH":26401,"BSTAR":8.3499222e-5,"MEAN_MOTION_DOT":2.115e-5,"MEAN_MOTION_DDOT":0},{"OBJECT_NAME":"STARLINK-2743","OBJECT_ID":"2021-044AW","EPOCH":"2026-03-07T08:08:40.131168","MEAN_MOTION":15.30196849,"ECCENTRICITY":0.00013538,"INCLINATION":53.161,"RA_OF_ASC_NODE":75.8656,"ARG_OF_PERICENTER":89.3533,"MEAN_ANOMALY":270.7623,"EPHEMERIS_TYPE":0,"CLASSIFICATION_TYPE":"U","NORAD_CAT_ID":48682,"ELEMENT_SET_NO":999,"REV_AT_EPOCH":26414,"BSTAR":4.6021223e-5,"MEAN_MOTION_DOT":1.004e-5,"MEAN_MOTION_DDOT":0},{"OBJECT_NAME":"STARLINK-2756","OBJECT_ID":"2021-044AX","EPOCH":"2026-03-07T11:03:10.432224","MEAN_MOTION":15.30203613,"ECCENTRICITY":0.00011654,"INCLINATION":53.161,"RA_OF_ASC_NODE":75.4898,"ARG_OF_PERICENTER":91.9836,"MEAN_ANOMALY":268.1298,"EPHEMERIS_TYPE":0,"CLASSIFICATION_TYPE":"U","NORAD_CAT_ID":48683,"ELEMENT_SET_NO":999,"REV_AT_EPOCH":26416,"BSTAR":0.00029502948,"MEAN_MOTION_DOT":8.39e-5,"MEAN_MOTION_DDOT":0},{"OBJECT_NAME":"STARLINK-2741","OBJECT_ID":"2021-044AY","EPOCH":"2026-03-07T10:09:21.876768","MEAN_MOTION":15.30190251,"ECCENTRICITY":0.00012625,"INCLINATION":53.1598,"RA_OF_ASC_NODE":88.4544,"ARG_OF_PERICENTER":89.7487,"MEAN_ANOMALY":270.3659,"EPHEMERIS_TYPE":0,"CLASSIFICATION_TYPE":"U","NORAD_CAT_ID":48684,"ELEMENT_SET_NO":999,"REV_AT_EPOCH":26398,"BSTAR":0.00030045998,"MEAN_MOTION_DOT":8.547e-5,"MEAN_MOTION_DDOT":0},{"OBJECT_NAME":"STARLINK-2751","OBJECT_ID":"2021-044AZ","EPOCH":"2026-03-07T08:13:13.486080","MEAN_MOTION":15.30196669,"ECCENTRICITY":0.00013694,"INCLINATION":53.161,"RA_OF_ASC_NODE":75.8405,"ARG_OF_PERICENTER":80.4699,"MEAN_ANOMALY":279.6456,"EPHEMERIS_TYPE":0,"CLASSIFICATION_TYPE":"U","NORAD_CAT_ID":48685,"ELEMENT_SET_NO":999,"REV_AT_EPOCH":26415,"BSTAR":0.0001337995,"MEAN_MOTION_DOT":3.605e-5,"MEAN_MOTION_DDOT":0}]
